[
    {
        "Altitude(m)": 607886.6860238456,
        "Argument of Periapsis(deg)": 0.0,
        "Eccentricity": 0.0,
        "Inclination(deg)": 60.0,
        "Latitude(deg)": 40.99842896068068,
        "Longitude(deg)": -20.027135505977242,
        "Mean Anomaly(deg)": 49.09089999999999,
        "RAAN(deg)": 50.0,
        "Satellite Name": "Test1 223",
        "Satellite Number": 223,
        "Semi-Major Axis(m)": 6980739.136638005,
        "Time(s)": 0
    },
    {
        "Altitude(m)": 607987.6004879886,
        "Argument of Periapsis(deg)": 0.00010418945913296404,
        "Eccentricity": 0.0,
        "Inclination(deg)": 60.0,
        "Latitude(deg)": 41.46352021174005,
        "Longitude(deg)": -19.522909642907937,
        "Mean Anomaly(deg)": 49.71100614546182,
        "RAAN(deg)": 49.99957995086026,
        "Satellite Name": "Test1 223",
        "Satellite Number": 223,
        "Semi-Major Axis(m)": 6980739.136638005,
        "Time(s)": 10
    }
]